FENGYUN 3D              
1 43010U 17072A   26191.82684877 -.00000019  00000+0  12697-4 0  9993
2 43010  99.0139 166.6774 0001745  23.8215 336.3041 14.19744108448348
NOAA 20 (JPSS-1)        
1 43013U 17073A   26191.82569582  .00000001  00000+0  21576-4 0  9998
2 43013  98.7774 131.0788 0001215 128.8184 231.3101 14.19515914447820
GOES 17                 
1 43226U 18022A   26191.62043337 -.00000174  00000+0  00000+0 0  9998
2 43226   0.9941  85.3292 0000598  79.6076 257.4648  1.00270909 30656
SENTINEL-3B             
1 43437U 18039A   26191.61306735  .00000041  00000+0  35163-4 0  9998
2 43437  98.6238 258.8081 0001044 120.4260 239.7024 14.26741218427461
FENGYUN 2H              
1 43491U 18050A   26191.79648641 -.00000122  00000+0  00000+0 0  9993
2 43491   3.0882  78.8018 0002226 130.4785  85.3676  1.00267747 29679
METOP-C                 
1 43689U 18087A   26191.78854917  .00000041  00000+0  38460-4 0  9991
2 43689  98.6632 250.9594 0002236  99.1856 260.9575 14.21518272398187
GEO-KOMPSAT-2A          
1 43823U 18100A   26191.80619311 -.00000335  00000+0  00000+0 0  9998
2 43823   0.0252 124.8017 0001979 336.3642 246.0525  1.00271981 27863
METEOR-M2 2             
1 44387U 19038A   26191.84732993 -.00000136  00000+0 -39078-4 0  9993
2 44387  98.9159 179.4827 0000984  12.5438 347.5765 14.24371638364662
ARKTIKA-M 1             
1 47719U 21016A   26188.42887598 -.00000257  00000+0  00000+0 0  9997
2 47719  63.2524  54.6812 7295086 270.0380  14.5466  2.00614486 39194
FENGYUN 3E              
1 49008U 21062A   26191.87856944 -.00000415  00000+0 -17478-3 0  9993
2 49008  98.7503 195.0221 0002466  47.0196 313.1186 14.19904579259941
GOES 18                 
1 51850U 22021A   26191.75364000  .00000106  00000+0  00000+0 0  9995
2 51850   0.0059  96.6733 0000602  95.5463 230.7575  1.00272232  6823
NOAA 21 (JPSS-2)        
1 54234U 22150A   26191.85806396  .00000014  00000+0  27440-4 0  9997
2 54234  98.7061 130.2497 0002727 112.0859 248.0607 14.19540636189904
METEOSAT-12 (MTG-I1)    
1 54743U 22170C   26191.85195234  .00000000  00000+0  00000+0 0  9999
2 54743   0.7204  18.9176 0003817  83.0068 133.2904  1.00266872 13215
TIANMU-1 03             
1 55973U 23039A   26191.84418552  .00010600  00000+0  20491-3 0  9997
2 55973  97.5239   6.7525 0002955  37.9647 322.1811 15.47961370184495
TIANMU-1 04             
1 55974U 23039B   26191.82435931  .00010991  00000+0  20786-3 0  9996
2 55974  97.5173   5.8877 0003455  29.0086 331.1355 15.48581475184508
TIANMU-1 05             
1 55975U 23039C   26191.82611089  .00010686  00000+0  20710-3 0  9995
2 55975  97.5219   6.3400 0003342  57.1791 302.9780 15.47883762184475
TIANMU-1 06             
1 55976U 23039D   26191.82925414  .00011020  00000+0  20915-3 0  9996
2 55976  97.5226   7.0030 0003451  49.8584 310.2968 15.48479292184504
FENGYUN 3G              
1 56232U 23055A   26191.58934779  .00014941  00000+0  23596-3 0  9990
2 56232  49.9913 225.3462 0007155  35.2908 324.8531 15.53651035183646
METEOR-M2 3             
1 57166U 23091A   26191.84711003 -.00000015  00000+0  12041-4 0  9991
2 57166  98.6070 246.3398 0005151 100.0265 260.1495 14.24048704157888
TIANMU-1 07             
1 57399U 23101A   26191.84185795  .00003951  00000+0  13826-3 0  9996
2 57399  97.2586 241.9688 0004002  73.5124 286.6556 15.30082969165269
TIANMU-1 08             
1 57400U 23101B   26191.80843582  .00004070  00000+0  14230-3 0  9993
2 57400  97.2574 241.7033 0004988  57.9112 302.2613 15.30086832165258
TIANMU-1 09             
1 57401U 23101C   26191.85670874  .00004168  00000+0  14550-3 0  9994
2 57401  97.2532 241.1542 0004609  74.3883 285.7866 15.30127069165264
TIANMU-1 10             
1 57402U 23101D   26191.82478021  .00004201  00000+0  14672-3 0  9995
2 57402  97.2612 242.1977 0005977  65.8778 294.3088 15.30100226165251
FENGYUN 3F              
1 57490U 23111A   26191.86191792  .00000003  00000+0  21611-4 0  9992
2 57490  98.6827 261.4285 0001361  78.2527 281.8802 14.19942955152227
ARKTIKA-M 2             
1 58584U 23198A   26191.19028483  .00000186  00000+0  00000+0 0  9990
2 58584  63.2187 151.7914 6909064 267.3543  18.7503  2.00608615 18787
TIANMU-1 11             
1 58645U 23205A   26191.90463759  .00003327  00000+0  12736-3 0  9998
2 58645  97.3445 213.0917 0006764 281.5383  78.5096 15.27236533141141
TIANMU-1 12             
1 58646U 23205B   26191.87656152  .00003686  00000+0  14153-3 0  9999
2 58646  97.3435 212.8127 0005535 254.3150 105.7478 15.27067105141128
TIANMU-1 13             
1 58647U 23205C   26191.84445475  .00003510  00000+0  13496-3 0  9996
2 58647  97.3462 213.0596 0005393 230.9608 129.1152 15.27059420141111
TIANMU-1 14             
1 58648U 23205D   26191.89449814  .00003440  00000+0  13212-3 0  9991
2 58648  97.3398 212.2721 0006055 238.7142 121.3504 15.27103782141123
TIANMU-1 19             
1 58660U 23208A   26191.80463847  .00005518  00000+0  18154-3 0  9999
2 58660  97.4516 308.2328 0004162 215.2781 144.8186 15.31932657140946
TIANMU-1 20             
1 58661U 23208B   26191.82411404  .00005313  00000+0  16849-3 0  9996
2 58661  97.4458 308.9123 0005967 229.6891 130.3831 15.33121647141047
