OBJECT_NAME,OBJECT_ID,EPOCH,MEAN_MOTION,ECCENTRICITY,INCLINATION,RA_OF_ASC_NODE,ARG_OF_PERICENTER,MEAN_ANOMALY,EPHEMERIS_TYPE,CLASSIFICATION_TYPE,NORAD_CAT_ID,ELEMENT_SET_NO,REV_AT_EPOCH,BSTAR,MEAN_MOTION_DOT,MEAN_MOTION_DDOT
FENGYUN 3D,2017-072A,2026-07-10T19:50:39.733728,14.19744108,.0001745,99.0139,166.6774,23.8215,336.3041,0,U,43010,999,44834,.12697E-4,-.19E-6,0
NOAA 20 (JPSS-1),2017-073A,2026-07-10T19:49:00.118848,14.19515914,.0001215,98.7774,131.0788,128.8184,231.3101,0,U,43013,999,44782,.21576E-4,.1E-7,0
GOES 17,2018-022A,2026-07-10T14:53:25.443168,1.00270909,.0000598,0.9941,85.3292,79.6076,257.4648,0,U,43226,999,3065,0,-.174E-5,0
SENTINEL-3B,2018-039A,2026-07-10T14:42:49.019040,14.26741218,.0001044,98.6238,258.8081,120.4260,239.7024,0,U,43437,999,42746,.35163E-4,.41E-6,0
FENGYUN 2H,2018-050A,2026-07-10T19:06:56.425824,1.00267747,.0002226,3.0882,78.8018,130.4785,85.3676,0,U,43491,999,2967,0,-.122E-5,0
METOP-C,2018-087A,2026-07-10T18:55:30.648288,14.21518272,.0002236,98.6632,250.9594,99.1856,260.9575,0,U,43689,999,39818,.3846E-4,.41E-6,0
GEO-KOMPSAT-2A,2018-100A,2026-07-10T19:20:55.084704,1.00271981,.0001979,0.0252,124.8017,336.3642,246.0525,0,U,43823,999,2786,0,-.335E-5,0
METEOR-M2 2,2019-038A,2026-07-10T20:20:09.305952,14.24371638,.0000984,98.9159,179.4827,12.5438,347.5765,0,U,44387,999,36466,-.39078E-4,-.136E-5,0
ARKTIKA-M 1,2021-016A,2026-07-07T10:17:34.884672,2.00614486,.72950864,63.2524,54.6812,270.0380,14.5466,0,U,47719,999,3919,0,-.257E-5,0
FENGYUN 3E,2021-062A,2026-07-10T21:05:08.399616,14.19904579,.0002466,98.7503,195.0221,47.0196,313.1186,0,U,49008,999,25994,-.17478E-3,-.415E-5,0
GOES 18,2022-021A,2026-07-10T18:05:14.496000,1.00272232,.0000602,0.0059,96.6733,95.5463,230.7575,0,U,51850,999,682,0,.106E-5,0
NOAA 21 (JPSS-2),2022-150A,2026-07-10T20:35:36.726144,14.19540636,.0002727,98.7061,130.2497,112.0859,248.0607,0,U,54234,999,18990,.2744E-4,.14E-6,0
METEOSAT-12 (MTG-I1),2022-170C,2026-07-10T20:26:48.682176,1.00266872,.0003817,0.7204,18.9176,83.0068,133.2904,0,U,54743,999,1321,0,0,0
TIANMU-1 03,2023-039A,2026-07-10T20:15:37.628928,15.47961370,.0002955,97.5239,6.7525,37.9647,322.1811,0,U,55973,999,18449,.20491E-3,.106E-3,0
TIANMU-1 04,2023-039B,2026-07-10T19:47:04.644384,15.48581475,.0003455,97.5173,5.8877,29.0086,331.1355,0,U,55974,999,18450,.20786E-3,.10991E-3,0
TIANMU-1 05,2023-039C,2026-07-10T19:49:35.980896,15.47883762,.0003342,97.5219,6.3400,57.1791,302.9780,0,U,55975,999,18447,.2071E-3,.10686E-3,0
TIANMU-1 06,2023-039D,2026-07-10T19:54:07.557696,15.48479292,.0003451,97.5226,7.0030,49.8584,310.2968,0,U,55976,999,18450,.20915E-3,.1102E-3,0
FENGYUN 3G,2023-055A,2026-07-10T14:08:39.649056,15.53651035,.0007155,49.9913,225.3462,35.2908,324.8531,0,U,56232,999,18364,.23596E-3,.14941E-3,0
METEOR-M2 3,2023-091A,2026-07-10T20:19:50.306592,14.24048704,.0005151,98.6070,246.3398,100.0265,260.1495,0,U,57166,999,15788,.12041E-4,-.15E-6,0
TIANMU-1 07,2023-101A,2026-07-10T20:12:16.526880,15.30082969,.0004002,97.2586,241.9688,73.5124,286.6556,0,U,57399,999,16526,.13826E-3,.3951E-4,0
TIANMU-1 08,2023-101B,2026-07-10T19:24:08.854848,15.30086832,.0004988,97.2574,241.7033,57.9112,302.2613,0,U,57400,999,16525,.1423E-3,.407E-4,0
TIANMU-1 09,2023-101C,2026-07-10T20:33:39.635136,15.30127069,.0004609,97.2532,241.1542,74.3883,285.7866,0,U,57401,999,16526,.1455E-3,.4168E-4,0
TIANMU-1 10,2023-101D,2026-07-10T19:47:41.010144,15.30100226,.0005977,97.2612,242.1977,65.8778,294.3088,0,U,57402,999,16525,.14672E-3,.4201E-4,0
FENGYUN 3F,2023-111A,2026-07-10T20:41:09.708288,14.19942955,.0001361,98.6827,261.4285,78.2527,281.8802,0,U,57490,999,15222,.21611E-4,.3E-7,0
ARKTIKA-M 2,2023-198A,2026-07-10T04:34:00.609312,2.00608615,.6909064,63.2187,151.7914,267.3543,18.7503,0,U,58584,999,1878,0,.186E-5,0
TIANMU-1 11,2023-205A,2026-07-10T21:42:40.687776,15.27236533,.0006764,97.3445,213.0917,281.5383,78.5096,0,U,58645,999,14114,.12736E-3,.3327E-4,0
TIANMU-1 12,2023-205B,2026-07-10T21:02:14.915328,15.27067105,.0005535,97.3435,212.8127,254.3150,105.7478,0,U,58646,999,14112,.14153E-3,.3686E-4,0
TIANMU-1 13,2023-205C,2026-07-10T20:16:00.890400,15.27059420,.0005393,97.3462,213.0596,230.9608,129.1152,0,U,58647,999,14111,.13496E-3,.351E-4,0
TIANMU-1 14,2023-205D,2026-07-10T21:28:04.639296,15.27103782,.0006055,97.3398,212.2721,238.7142,121.3504,0,U,58648,999,14112,.13212E-3,.344E-4,0
TIANMU-1 19,2023-208A,2026-07-10T19:18:40.763808,15.31932657,.0004162,97.4516,308.2328,215.2781,144.8186,0,U,58660,999,14094,.18154E-3,.5518E-4,0
TIANMU-1 20,2023-208B,2026-07-10T19:46:43.453056,15.33121647,.0005967,97.4458,308.9123,229.6891,130.3831,0,U,58661,999,14104,.16849E-3,.5313E-4,0
